OBJECT_NAME,OBJECT_ID,EPOCH,MEAN_MOTION,ECCENTRICITY,INCLINATION,RA_OF_ASC_NODE,ARG_OF_PERICENTER,MEAN_ANOMALY,EPHEMERIS_TYPE,CLASSIFICATION_TYPE,NORAD_CAT_ID,ELEMENT_SET_NO,REV_AT_EPOCH,BSTAR,MEAN_MOTION_DOT,MEAN_MOTION_DDOT
ONEWEB-0223,2021-045B,2026-07-11T16:24:34.388640,13.15547086,.0002277,87.8994,254.3115,107.7356,252.4023,0,U,48768,999,24762,-.21389E-3,-.68E-6,0
ONEWEB-0230,2021-045C,2026-07-11T17:33:01.391040,13.15548618,.0001866,87.8986,254.3130,94.6950,265.4393,0,U,48769,999,24789,-.69639E-4,-.13E-6,0
ONEWEB-0237,2021-045D,2026-07-11T17:17:02.851296,13.15548026,.0002434,87.8984,254.3173,96.8449,263.2958,0,U,48770,999,24761,-.41907E-4,-.3E-7,0
ONEWEB-0235,2021-045E,2026-07-11T16:40:31.629792,13.15549620,.0002077,87.8992,254.3112,105.8461,254.2899,0,U,48771,999,24760,.36159E-3,.149E-5,0
ONEWEB-0242,2021-045F,2026-07-11T16:31:25.123008,13.15548186,.0001927,87.8995,254.3089,103.8379,256.2966,0,U,48772,999,24764,.13147E-3,.62E-6,0
ONEWEB-0241,2021-045G,2026-07-11T14:23:36.534624,13.15550375,.0002406,87.8985,254.3418,104.5271,255.6126,0,U,48773,999,24754,-.70849E-4,-.14E-6,0
ONEWEB-0243,2021-045H,2026-07-11T15:09:15.958944,13.15550490,.0001773,87.8986,254.3486,110.5695,249.5625,0,U,48774,999,24757,.28442E-3,.12E-5,0
ONEWEB-0222,2021-045J,2026-07-11T16:34:49.629216,13.15546410,.0002231,87.8997,254.3059,103.9527,256.1851,0,U,48775,999,24762,.18769E-3,.83E-6,0
ONEWEB-0244,2021-045K,2026-07-11T17:12:29.411712,13.15547468,.0002061,87.9002,254.2974,98.7944,261.3420,0,U,48776,999,24819,-.17197E-3,-.52E-6,0
ONEWEB-0247,2021-045L,2026-07-11T17:07:55.389792,13.15549107,.0001999,87.8985,254.3262,126.6025,233.5289,0,U,48777,999,24763,.31268E-3,.131E-5,0
ONEWEB-0245,2021-045M,2026-07-11T17:01:04.039392,13.15548714,.0002268,87.8996,254.3088,99.8540,260.2846,0,U,48778,999,24760,.11865E-3,.57E-6,0
ONEWEB-0229,2021-045N,2026-07-11T15:04:42.619584,13.15547326,.0001961,87.8998,254.3233,98.8484,261.2869,0,U,48779,999,24762,.24786E-3,.106E-5,0
ONEWEB-0228,2021-045P,2026-07-11T15:52:49.133856,13.15548662,.0002126,87.9001,254.3099,99.6919,260.4452,0,U,48780,999,24754,-.44036E-3,-.153E-5,0
ONEWEB-0232,2021-045Q,2026-07-11T17:05:38.802624,13.15547754,.0002201,87.8999,254.3003,97.5295,262.6085,0,U,48781,999,24787,.17275E-3,.78E-6,0
ONEWEB-0231,2021-045R,2026-07-11T16:33:41.668704,13.15547722,.0002095,87.8989,254.3169,104.3545,255.7818,0,U,48782,999,24756,.43088E-3,.175E-5,0
ONEWEB-0234,2021-045S,2026-07-11T15:38:44.228256,13.15547178,.0002853,87.8995,254.3062,88.3879,271.7578,0,U,48783,999,24769,-.34676E-3,-.118E-5,0
ONEWEB-0238,2021-045T,2026-07-11T17:28:38.104320,13.15548576,.000248,87.9000,254.2868,92.0642,268.0772,0,U,48784,999,24760,-.18223E-3,-.56E-6,0
ONEWEB-0240,2021-045U,2026-07-11T16:09:43.911360,13.15548816,.0002361,87.8997,254.3072,103.0610,257.0784,0,U,48785,999,24762,-.21697E-3,-.69E-6,0
ONEWEB-0246,2021-045V,2026-07-11T16:01:44.932224,13.15547744,.0002026,87.8993,254.3123,99.6813,260.4547,0,U,48786,999,24749,-.23987E-3,-.77E-6,0
ONEWEB-0210,2021-045W,2026-07-11T17:14:45.970368,13.15547805,.0001695,87.8999,254.2996,120.9309,239.1988,0,U,48787,999,24754,-.92627E-5,.9E-7,0
ONEWEB-0214,2021-045X,2026-07-11T17:27:17.640000,13.15546611,.0001768,87.8999,254.2946,99.0050,261.1281,0,U,48788,999,24751,-.36587E-3,-.125E-5,0
ONEWEB-0221,2021-045Y,2026-07-11T15:48:03.968064,13.15547885,.0002156,87.8995,254.3170,103.1450,256.9921,0,U,48789,999,24759,-.38919E-3,-.134E-5,0
ONEWEB-0213,2021-045Z,2026-07-11T17:21:36.917280,13.15548153,.0002075,87.8998,254.3071,105.5283,254.6077,0,U,48790,999,24766,-.19375E-3,-.6E-6,0
ONEWEB-0212,2021-045AA,2026-07-11T14:58:59.251296,13.15547085,.0002135,87.8995,254.3210,97.4678,262.6695,0,U,48791,999,24764,.46529E-3,.188E-5,0
ONEWEB-0227,2021-045AB,2026-07-11T16:47:23.093376,13.15548887,.0002007,87.8999,254.3048,108.4675,251.6674,0,U,48792,999,24760,.35657E-3,.147E-5,0
ONEWEB-0226,2021-045AC,2026-07-11T16:38:15.448704,13.15547116,.0001966,87.8992,254.3123,104.1836,255.9513,0,U,48793,999,24757,.17785E-3,.8E-6,0
ONEWEB-0224,2021-045AD,2026-07-11T15:45:47.137248,13.15548287,.0002982,87.8987,254.3522,100.8745,259.2721,0,U,48794,999,24749,-.34559E-3,-.117E-5,0
ONEWEB-0233,2021-045AE,2026-07-11T15:52:25.648608,13.15550252,.0002246,87.8987,254.3585,104.5836,255.5543,0,U,48795,999,24751,-.38259E-3,-.131E-5,0
ONEWEB-0190,2021-045AF,2026-07-11T17:23:53.666016,13.15548460,.0002171,87.8995,254.3090,116.2281,243.9073,0,U,48796,999,24759,-.18607E-3,-.57E-6,0
ONEWEB-0236,2021-045AG,2026-07-11T15:59:28.510080,13.15548027,.000212,87.8985,254.3294,95.9707,264.1665,0,U,48797,999,24747,-.4415E-3,-.153E-5,0
