[
  {
    "name": "ONEWEB-0223",
    "noradId": "48768",
    "line1": "1 48768U 21045B   26192.68373135 -.00000068  00000+0 -21389-3 0  9992",
    "line2": "2 48768  87.8994 254.3115 0002277 107.7356 252.4023 13.15547086247627"
  },
  {
    "name": "ONEWEB-0230",
    "noradId": "48769",
    "line1": "1 48769U 21045C   26192.73126610 -.00000013  00000+0 -69639-4 0  9994",
    "line2": "2 48769  87.8986 254.3130 0001866  94.6950 265.4393 13.15548618247898"
  },
  {
    "name": "ONEWEB-0237",
    "noradId": "48770",
    "line1": "1 48770U 21045D   26192.72017189 -.00000003  00000+0 -41907-4 0  9992",
    "line2": "2 48770  87.8984 254.3173 0002434  96.8449 263.2958 13.15548026247610"
  },
  {
    "name": "ONEWEB-0235",
    "noradId": "48771",
    "line1": "1 48771U 21045E   26192.69481053  .00000149  00000+0  36159-3 0  9995",
    "line2": "2 48771  87.8992 254.3112 0002077 105.8461 254.2899 13.15549620247605"
  },
  {
    "name": "ONEWEB-0242",
    "noradId": "48772",
    "line1": "1 48772U 21045F   26192.68848522  .00000062  00000+0  13147-3 0  9999",
    "line2": "2 48772  87.8995 254.3089 0001927 103.8379 256.2966 13.15548186247648"
  },
  {
    "name": "ONEWEB-0241",
    "noradId": "48773",
    "line1": "1 48773U 21045G   26192.59972841 -.00000014  00000+0 -70849-4 0  9994",
    "line2": "2 48773  87.8985 254.3418 0002406 104.5271 255.6126 13.15550375247549"
  },
  {
    "name": "ONEWEB-0243",
    "noradId": "48774",
    "line1": "1 48774U 21045H   26192.63143471  .00000120  00000+0  28442-3 0  9996",
    "line2": "2 48774  87.8986 254.3486 0001773 110.5695 249.5625 13.15550490247576"
  },
  {
    "name": "ONEWEB-0222",
    "noradId": "48775",
    "line1": "1 48775U 21045J   26192.69085219  .00000083  00000+0  18769-3 0  9997",
    "line2": "2 48775  87.8997 254.3059 0002231 103.9527 256.1851 13.15546410247623"
  },
  {
    "name": "ONEWEB-0244",
    "noradId": "48776",
    "line1": "1 48776U 21045K   26192.71700708 -.00000052  00000+0 -17197-3 0  9990",
    "line2": "2 48776  87.9002 254.2974 0002061  98.7944 261.3420 13.15547468248199"
  },
  {
    "name": "ONEWEB-0247",
    "noradId": "48777",
    "line1": "1 48777U 21045L   26192.71383553  .00000131  00000+0  31268-3 0  9997",
    "line2": "2 48777  87.8985 254.3262 0001999 126.6025 233.5289 13.15549107247634"
  },
  {
    "name": "ONEWEB-0245",
    "noradId": "48778",
    "line1": "1 48778U 21045M   26192.70907453  .00000057  00000+0  11865-3 0  9996",
    "line2": "2 48778  87.8996 254.3088 0002268  99.8540 260.2846 13.15548714247602"
  },
  {
    "name": "ONEWEB-0229",
    "noradId": "48779",
    "line1": "1 48779U 21045N   26192.62827106  .00000106  00000+0  24786-3 0  9995",
    "line2": "2 48779  87.8998 254.3233 0001961  98.8484 261.2869 13.15547326247628"
  },
  {
    "name": "ONEWEB-0228",
    "noradId": "48780",
    "line1": "1 48780U 21045P   26192.66167979 -.00000153  00000+0 -44036-3 0  9990",
    "line2": "2 48780  87.9001 254.3099 0002126  99.6919 260.4452 13.15548662247546"
  },
  {
    "name": "ONEWEB-0232",
    "noradId": "48781",
    "line1": "1 48781U 21045Q   26192.71225466  .00000078  00000+0  17275-3 0  9992",
    "line2": "2 48781  87.8999 254.3003 0002201  97.5295 262.6085 13.15547754247878"
  },
  {
    "name": "ONEWEB-0231",
    "noradId": "48782",
    "line1": "1 48782U 21045R   26192.69006561  .00000175  00000+0  43088-3 0  9992",
    "line2": "2 48782  87.8989 254.3169 0002095 104.3545 255.7818 13.15547722247565"
  },
  {
    "name": "ONEWEB-0234",
    "noradId": "48783",
    "line1": "1 48783U 21045S   26192.65190079 -.00000118  00000+0 -34676-3 0  9999",
    "line2": "2 48783  87.8995 254.3062 0002853  88.3879 271.7578 13.15547178247698"
  },
  {
    "name": "ONEWEB-0238",
    "noradId": "48784",
    "line1": "1 48784U 21045T   26192.72821880 -.00000056  00000+0 -18223-3 0  9990",
    "line2": "2 48784  87.9000 254.2868 0002480  92.0642 268.0772 13.15548576247605"
  },
  {
    "name": "ONEWEB-0240",
    "noradId": "48785",
    "line1": "1 48785U 21045U   26192.67342490 -.00000069  00000+0 -21697-3 0  9993",
    "line2": "2 48785  87.8997 254.3072 0002361 103.0610 257.0784 13.15548816247624"
  },
  {
    "name": "ONEWEB-0246",
    "noradId": "48786",
    "line1": "1 48786U 21045V   26192.66788116 -.00000077  00000+0 -23987-3 0  9995",
    "line2": "2 48786  87.8993 254.3123 0002026  99.6813 260.4547 13.15547744247490"
  },
  {
    "name": "ONEWEB-0210",
    "noradId": "48787",
    "line1": "1 48787U 21045W   26192.71858762  .00000009  00000+0 -92627-5 0  9990",
    "line2": "2 48787  87.8999 254.2996 0001695 120.9309 239.1988 13.15547805247549"
  },
  {
    "name": "ONEWEB-0214",
    "noradId": "48788",
    "line1": "1 48788U 21045X   26192.72728750 -.00000125  00000+0 -36587-3 0  9996",
    "line2": "2 48788  87.8999 254.2946 0001768  99.0050 261.1281 13.15546611247517"
  },
  {
    "name": "ONEWEB-0221",
    "noradId": "48789",
    "line1": "1 48789U 21045Y   26192.65837926 -.00000134  00000+0 -38919-3 0  9996",
    "line2": "2 48789  87.8995 254.3170 0002156 103.1450 256.9921 13.15547885247592"
  },
  {
    "name": "ONEWEB-0213",
    "noradId": "48790",
    "line1": "1 48790U 21045Z   26192.72334395 -.00000060  00000+0 -19375-3 0  9991",
    "line2": "2 48790  87.8998 254.3071 0002075 105.5283 254.6077 13.15548153247661"
  },
  {
    "name": "ONEWEB-0212",
    "noradId": "48791",
    "line1": "1 48791U 21045AA  26192.62429689  .00000188  00000+0  46529-3 0  9992",
    "line2": "2 48791  87.8995 254.3210 0002135  97.4678 262.6695 13.15547085247644"
  },
  {
    "name": "ONEWEB-0227",
    "noradId": "48792",
    "line1": "1 48792U 21045AB  26192.69957284  .00000147  00000+0  35657-3 0  9992",
    "line2": "2 48792  87.8999 254.3048 0002007 108.4675 251.6674 13.15548887247608"
  },
  {
    "name": "ONEWEB-0226",
    "noradId": "48793",
    "line1": "1 48793U 21045AC  26192.69323436  .00000080  00000+0  17785-3 0  9997",
    "line2": "2 48793  87.8992 254.3123 0001966 104.1836 255.9513 13.15547116247570"
  },
  {
    "name": "ONEWEB-0224",
    "noradId": "48794",
    "line1": "1 48794U 21045AD  26192.65679557 -.00000117  00000+0 -34559-3 0  9993",
    "line2": "2 48794  87.8987 254.3522 0002982 100.8745 259.2721 13.15548287247498"
  },
  {
    "name": "ONEWEB-0233",
    "noradId": "48795",
    "line1": "1 48795U 21045AE  26192.66140797 -.00000131  00000+0 -38259-3 0  9991",
    "line2": "2 48795  87.8987 254.3585 0002246 104.5836 255.5543 13.15550252247512"
  },
  {
    "name": "ONEWEB-0190",
    "noradId": "48796",
    "line1": "1 48796U 21045AF  26192.72492669 -.00000057  00000+0 -18607-3 0  9999",
    "line2": "2 48796  87.8995 254.3090 0002171 116.2281 243.9073 13.15548460247599"
  },
  {
    "name": "ONEWEB-0236",
    "noradId": "48797",
    "line1": "1 48797U 21045AG  26192.66630220 -.00000153  00000+0 -44150-3 0  9999",
    "line2": "2 48797  87.8985 254.3294 0002120  95.9707 264.1665 13.15548027247473"
  }
]